CSS (TIANHE)            
1 48274U 21035A   24223.06697289  .00051765  00000+0  62237-3 0  9992
2 48274  41.4681 114.6676 0001271 248.2144 111.8559 15.59999540187527
